[{"OBJECT_NAME":"STARLINK-34679","OBJECT_ID":"2025-194J","EPOCH":"2026-03-09T21:50:23.040096","MEAN_MOTION":15.0564755,"ECCENTRICITY":0.0002279,"INCLINATION":97.6021,"RA_OF_ASC_NODE":284.6549,"ARG_OF_PERICENTER":80.433,"MEAN_ANOMALY":279.7154,"EPHEMERIS_TYPE":0,"CLASSIFICATION_TYPE":"U","NORAD_CAT_ID":65442,"ELEMENT_SET_NO":999,"REV_AT_EPOCH":2968,"BSTAR":-0.00048236356,"MEAN_MOTION_DOT":-7.014e-5,"MEAN_MOTION_DDOT":0},{"OBJECT_NAME":"UNKNOWN","OBJECT_ID":"","EPOCH":"2026-03-09T02:53:57.432768","MEAN_MOTION":15.04852502,"ECCENTRICITY":0.0007482,"INCLINATION":86.6587,"RA_OF_ASC_NODE":118.2618,"ARG_OF_PERICENTER":183.1315,"MEAN_ANOMALY":176.9875,"EPHEMERIS_TYPE":0,"CLASSIFICATION_TYPE":"U","NORAD_CAT_ID":82402,"ELEMENT_SET_NO":999,"REV_AT_EPOCH":46745,"BSTAR":0.00051144,"MEAN_MOTION_DOT":7.26e-5,"MEAN_MOTION_DDOT":0}]
